<kml xmlns:xsd="https://schemas.opengis.net/kml/2.2.0/ogckml22.xsd" xmlns:xmlns="https://www.opengis.net/kml/2.2/" version="1.0">
  <Document>
    <name>prof1</name>
    <open>1</open>
    <Folder>
      <name>SoilProfileCollection</name>
      <Folder>
        <name>sites</name>
        <Style id="poly1">
          <PolyStyle>
            <color>#ff364456</color>
            <fill>1</fill>
            <outline>1</outline>
          </PolyStyle>
        </Style>
        <Style id="poly2">
          <PolyStyle>
            <color>#ff3a597d</color>
            <fill>1</fill>
            <outline>1</outline>
          </PolyStyle>
        </Style>
        <Style id="poly3">
          <PolyStyle>
            <color>#ff4f6ba9</color>
            <fill>1</fill>
            <outline>1</outline>
          </PolyStyle>
        </Style>
        <Style id="poly4">
          <PolyStyle>
            <color>#ff3269af</color>
            <fill>1</fill>
            <outline>1</outline>
          </PolyStyle>
        </Style>
        <Style id="poly5">
          <PolyStyle>
            <color>#ff597299</color>
            <fill>1</fill>
            <outline>1</outline>
          </PolyStyle>
        </Style>
        <Style id="poly6">
          <PolyStyle>
            <color>#ff8cacc4</color>
            <fill>1</fill>
            <outline>1</outline>
          </PolyStyle>
        </Style>
        <Placemark>
          <name>18.4</name>
          <styleUrl>#poly1</styleUrl>
          <visibility>1</visibility>
          <Polygon>
            <tessellate>1</tessellate>
            <altitudeMode>relativeToGround</altitudeMode>
            <outerBoundaryIs>
              <LinearRing>
                <coordinates>3.89791666666667,7.50298794492161,300
 3.90208333333333,7.50298794492161,300
 3.90208333333333,7.50298794492161,282
 3.89791666666667,7.50298794492161,282
 3.89791666666667,7.50298794492161,300</coordinates>
              </LinearRing>
            </outerBoundaryIs>
          </Polygon>
        </Placemark>
        <Placemark>
          <name>4.4</name>
          <styleUrl>#poly2</styleUrl>
          <visibility>1</visibility>
          <Polygon>
            <tessellate>1</tessellate>
            <altitudeMode>relativeToGround</altitudeMode>
            <outerBoundaryIs>
              <LinearRing>
                <coordinates>3.89791666666667,7.50298794492161,282
 3.90208333333333,7.50298794492161,282
 3.90208333333333,7.50298794492161,264
 3.89791666666667,7.50298794492161,264
 3.89791666666667,7.50298794492161,282</coordinates>
              </LinearRing>
            </outerBoundaryIs>
          </Polygon>
        </Placemark>
        <Placemark>
          <name>3.6</name>
          <styleUrl>#poly3</styleUrl>
          <visibility>1</visibility>
          <Polygon>
            <tessellate>1</tessellate>
            <altitudeMode>relativeToGround</altitudeMode>
            <outerBoundaryIs>
              <LinearRing>
                <coordinates>3.89791666666667,7.50298794492161,264
 3.90208333333333,7.50298794492161,264
 3.90208333333333,7.50298794492161,235
 3.89791666666667,7.50298794492161,235
 3.89791666666667,7.50298794492161,264</coordinates>
              </LinearRing>
            </outerBoundaryIs>
          </Polygon>
        </Placemark>
        <Placemark>
          <name>3.6</name>
          <styleUrl>#poly4</styleUrl>
          <visibility>1</visibility>
          <Polygon>
            <tessellate>1</tessellate>
            <altitudeMode>relativeToGround</altitudeMode>
            <outerBoundaryIs>
              <LinearRing>
                <coordinates>3.89791666666667,7.50298794492161,235
 3.90208333333333,7.50298794492161,235
 3.90208333333333,7.50298794492161,213
 3.89791666666667,7.50298794492161,213
 3.89791666666667,7.50298794492161,235</coordinates>
              </LinearRing>
            </outerBoundaryIs>
          </Polygon>
        </Placemark>
        <Placemark>
          <name>3.2</name>
          <styleUrl>#poly5</styleUrl>
          <visibility>1</visibility>
          <Polygon>
            <tessellate>1</tessellate>
            <altitudeMode>relativeToGround</altitudeMode>
            <outerBoundaryIs>
              <LinearRing>
                <coordinates>3.89791666666667,7.50298794492161,213
 3.90208333333333,7.50298794492161,213
 3.90208333333333,7.50298794492161,173
 3.89791666666667,7.50298794492161,173
 3.89791666666667,7.50298794492161,213</coordinates>
              </LinearRing>
            </outerBoundaryIs>
          </Polygon>
        </Placemark>
        <Placemark>
          <name>1.2</name>
          <styleUrl>#poly6</styleUrl>
          <visibility>1</visibility>
          <Polygon>
            <tessellate>1</tessellate>
            <altitudeMode>relativeToGround</altitudeMode>
            <outerBoundaryIs>
              <LinearRing>
                <coordinates>3.89791666666667,7.50298794492161,173
 3.90208333333333,7.50298794492161,173
 3.90208333333333,7.50298794492161,119
 3.89791666666667,7.50298794492161,119
 3.89791666666667,7.50298794492161,173</coordinates>
              </LinearRing>
            </outerBoundaryIs>
          </Polygon>
        </Placemark>
        <Placemark>
          <name>ISRIC:NG0017</name>
          <visibility>1</visibility>
          <Polygon>
            <tessellate>1</tessellate>
            <extrude>1</extrude>
            <altitudeMode>relativeToGround</altitudeMode>
            <outerBoundaryIs>
              <LinearRing>
                <coordinates>3.89791666666667,7.49705372174506,300
 3.90208333333333,7.49705372174506,300
 3.90208333333333,7.50294627825494,300
 3.89791666666667,7.50294627825494,300
 3.89791666666667,7.49705372174506,300</coordinates>
              </LinearRing>
            </outerBoundaryIs>
          </Polygon>
        </Placemark>
      </Folder>
      <Folder>
        <name>ORCDRC</name>
        <Style id="pnt1">
          <LabelStyle>
            <scale>0.3</scale>
          </LabelStyle>
          <IconStyle>
            <color>#ff0000ff</color>
            <scale>0.35</scale>
            <Icon>
              <href>https://plotkml.r-forge.r-project.org/circlesquare.png</href>
            </Icon>
          </IconStyle>
          <BalloonStyle>
            <text>$[description]</text>
          </BalloonStyle>
        </Style>
        <Style id="pnt2">
          <LabelStyle>
            <scale>0.3</scale>
          </LabelStyle>
          <IconStyle>
            <color>#ff0000ff</color>
            <scale>0.35</scale>
            <Icon>
              <href>https://plotkml.r-forge.r-project.org/circlesquare.png</href>
            </Icon>
          </IconStyle>
          <BalloonStyle>
            <text>$[description]</text>
          </BalloonStyle>
        </Style>
        <Style id="pnt3">
          <LabelStyle>
            <scale>0.3</scale>
          </LabelStyle>
          <IconStyle>
            <color>#ff0000ff</color>
            <scale>0.35</scale>
            <Icon>
              <href>https://plotkml.r-forge.r-project.org/circlesquare.png</href>
            </Icon>
          </IconStyle>
          <BalloonStyle>
            <text>$[description]</text>
          </BalloonStyle>
        </Style>
        <Style id="pnt4">
          <LabelStyle>
            <scale>0.3</scale>
          </LabelStyle>
          <IconStyle>
            <color>#ff0000ff</color>
            <scale>0.35</scale>
            <Icon>
              <href>https://plotkml.r-forge.r-project.org/circlesquare.png</href>
            </Icon>
          </IconStyle>
          <BalloonStyle>
            <text>$[description]</text>
          </BalloonStyle>
        </Style>
        <Style id="pnt5">
          <LabelStyle>
            <scale>0.3</scale>
          </LabelStyle>
          <IconStyle>
            <color>#ff0000ff</color>
            <scale>0.35</scale>
            <Icon>
              <href>https://plotkml.r-forge.r-project.org/circlesquare.png</href>
            </Icon>
          </IconStyle>
          <BalloonStyle>
            <text>$[description]</text>
          </BalloonStyle>
        </Style>
        <Style id="pnt6">
          <LabelStyle>
            <scale>0.3</scale>
          </LabelStyle>
          <IconStyle>
            <color>#ff0000ff</color>
            <scale>0.35</scale>
            <Icon>
              <href>https://plotkml.r-forge.r-project.org/circlesquare.png</href>
            </Icon>
          </IconStyle>
          <BalloonStyle>
            <text>$[description]</text>
          </BalloonStyle>
        </Style>
        <Placemark>
          <name>18.4</name>
          <styleUrl>#pnt1</styleUrl>
          <description><![CDATA[<span style="font-weight: bold; color: #000000; padding: 3px;">id</span>:&nbsp;
<span style="color: #000000; padding:3px;">ISRIC:NG0017</span><br>
<span style="font-weight: bold; color: #000000; padding: 3px;">top</span>:&nbsp;
<span style="color: #000000; padding:3px;">0</span><br>
<span style="font-weight: bold; color: #000000; padding: 3px;">bottom</span>:&nbsp;
<span style="color: #000000; padding:3px;">18</span><br>
<span style="font-weight: bold; color: #000000; padding: 3px;">ORCDRC</span>:&nbsp;
<span style="color: #000000; padding:3px;">18.4</span><br>
<span style="font-weight: bold; color: #000000; padding: 3px;">hue</span>:&nbsp;
<span style="color: #000000; padding:3px;">7.5YR</span><br>
<span style="font-weight: bold; color: #000000; padding: 3px;">value</span>:&nbsp;
<span style="color: #000000; padding:3px;">3</span><br>
<span style="font-weight: bold; color: #000000; padding: 3px;">chroma</span>:&nbsp;
<span style="color: #000000; padding:3px;">2</span><br>
<span style="font-weight: bold; color: #000000; padding: 3px;">soil_color</span>:&nbsp;
<span style="color: #000000; padding:3px;">#564436FF</span><br>
<span style="font-weight: bold; color: #000000; padding: 3px;">hzID</span>:&nbsp;
<span style="color: #000000; padding:3px;">1</span><br>]]></description>
          <Point>
            <extrude>1</extrude>
            <altitudeMode>relativeToGround</altitudeMode>
            <coordinates>3.9,7.50298794492161,291</coordinates>
          </Point>
        </Placemark>
        <Placemark>
          <name>4.4</name>
          <styleUrl>#pnt2</styleUrl>
          <description><![CDATA[<span style="font-weight: bold; color: #000000; padding: 3px;">id</span>:&nbsp;
<span style="color: #000000; padding:3px;">ISRIC:NG0017</span><br>
<span style="font-weight: bold; color: #000000; padding: 3px;">top</span>:&nbsp;
<span style="color: #000000; padding:3px;">18</span><br>
<span style="font-weight: bold; color: #000000; padding: 3px;">bottom</span>:&nbsp;
<span style="color: #000000; padding:3px;">36</span><br>
<span style="font-weight: bold; color: #000000; padding: 3px;">ORCDRC</span>:&nbsp;
<span style="color: #000000; padding:3px;">4.4</span><br>
<span style="font-weight: bold; color: #000000; padding: 3px;">hue</span>:&nbsp;
<span style="color: #000000; padding:3px;">7.5YR</span><br>
<span style="font-weight: bold; color: #000000; padding: 3px;">value</span>:&nbsp;
<span style="color: #000000; padding:3px;">4</span><br>
<span style="font-weight: bold; color: #000000; padding: 3px;">chroma</span>:&nbsp;
<span style="color: #000000; padding:3px;">4</span><br>
<span style="font-weight: bold; color: #000000; padding: 3px;">soil_color</span>:&nbsp;
<span style="color: #000000; padding:3px;">#7D593AFF</span><br>
<span style="font-weight: bold; color: #000000; padding: 3px;">hzID</span>:&nbsp;
<span style="color: #000000; padding:3px;">2</span><br>]]></description>
          <Point>
            <extrude>1</extrude>
            <altitudeMode>relativeToGround</altitudeMode>
            <coordinates> 3.9,7.50298794492161,273</coordinates>
          </Point>
        </Placemark>
        <Placemark>
          <name>3.6</name>
          <styleUrl>#pnt3</styleUrl>
          <description><![CDATA[<span style="font-weight: bold; color: #000000; padding: 3px;">id</span>:&nbsp;
<span style="color: #000000; padding:3px;">ISRIC:NG0017</span><br>
<span style="font-weight: bold; color: #000000; padding: 3px;">top</span>:&nbsp;
<span style="color: #000000; padding:3px;">36</span><br>
<span style="font-weight: bold; color: #000000; padding: 3px;">bottom</span>:&nbsp;
<span style="color: #000000; padding:3px;">65</span><br>
<span style="font-weight: bold; color: #000000; padding: 3px;">ORCDRC</span>:&nbsp;
<span style="color: #000000; padding:3px;">3.6</span><br>
<span style="font-weight: bold; color: #000000; padding: 3px;">hue</span>:&nbsp;
<span style="color: #000000; padding:3px;">2.5YR</span><br>
<span style="font-weight: bold; color: #000000; padding: 3px;">value</span>:&nbsp;
<span style="color: #000000; padding:3px;">5</span><br>
<span style="font-weight: bold; color: #000000; padding: 3px;">chroma</span>:&nbsp;
<span style="color: #000000; padding:3px;">6</span><br>
<span style="font-weight: bold; color: #000000; padding: 3px;">soil_color</span>:&nbsp;
<span style="color: #000000; padding:3px;">#A96B4FFF</span><br>
<span style="font-weight: bold; color: #000000; padding: 3px;">hzID</span>:&nbsp;
<span style="color: #000000; padding:3px;">3</span><br>]]></description>
          <Point>
            <extrude>1</extrude>
            <altitudeMode>relativeToGround</altitudeMode>
            <coordinates> 3.9,7.50298794492161,249.5</coordinates>
          </Point>
        </Placemark>
        <Placemark>
          <name>3.6</name>
          <styleUrl>#pnt4</styleUrl>
          <description><![CDATA[<span style="font-weight: bold; color: #000000; padding: 3px;">id</span>:&nbsp;
<span style="color: #000000; padding:3px;">ISRIC:NG0017</span><br>
<span style="font-weight: bold; color: #000000; padding: 3px;">top</span>:&nbsp;
<span style="color: #000000; padding:3px;">65</span><br>
<span style="font-weight: bold; color: #000000; padding: 3px;">bottom</span>:&nbsp;
<span style="color: #000000; padding:3px;">87</span><br>
<span style="font-weight: bold; color: #000000; padding: 3px;">ORCDRC</span>:&nbsp;
<span style="color: #000000; padding:3px;">3.6</span><br>
<span style="font-weight: bold; color: #000000; padding: 3px;">hue</span>:&nbsp;
<span style="color: #000000; padding:3px;">5YR</span><br>
<span style="font-weight: bold; color: #000000; padding: 3px;">value</span>:&nbsp;
<span style="color: #000000; padding:3px;">5</span><br>
<span style="font-weight: bold; color: #000000; padding: 3px;">chroma</span>:&nbsp;
<span style="color: #000000; padding:3px;">8</span><br>
<span style="font-weight: bold; color: #000000; padding: 3px;">soil_color</span>:&nbsp;
<span style="color: #000000; padding:3px;">#AF6932FF</span><br>
<span style="font-weight: bold; color: #000000; padding: 3px;">hzID</span>:&nbsp;
<span style="color: #000000; padding:3px;">4</span><br>]]></description>
          <Point>
            <extrude>1</extrude>
            <altitudeMode>relativeToGround</altitudeMode>
            <coordinates> 3.9,7.50298794492161,224</coordinates>
          </Point>
        </Placemark>
        <Placemark>
          <name>3.2</name>
          <styleUrl>#pnt5</styleUrl>
          <description><![CDATA[<span style="font-weight: bold; color: #000000; padding: 3px;">id</span>:&nbsp;
<span style="color: #000000; padding:3px;">ISRIC:NG0017</span><br>
<span style="font-weight: bold; color: #000000; padding: 3px;">top</span>:&nbsp;
<span style="color: #000000; padding:3px;">87</span><br>
<span style="font-weight: bold; color: #000000; padding: 3px;">bottom</span>:&nbsp;
<span style="color: #000000; padding:3px;">127</span><br>
<span style="font-weight: bold; color: #000000; padding: 3px;">ORCDRC</span>:&nbsp;
<span style="color: #000000; padding:3px;">3.2</span><br>
<span style="font-weight: bold; color: #000000; padding: 3px;">hue</span>:&nbsp;
<span style="color: #000000; padding:3px;">5YR</span><br>
<span style="font-weight: bold; color: #000000; padding: 3px;">value</span>:&nbsp;
<span style="color: #000000; padding:3px;">5</span><br>
<span style="font-weight: bold; color: #000000; padding: 3px;">chroma</span>:&nbsp;
<span style="color: #000000; padding:3px;">4</span><br>
<span style="font-weight: bold; color: #000000; padding: 3px;">soil_color</span>:&nbsp;
<span style="color: #000000; padding:3px;">#997259FF</span><br>
<span style="font-weight: bold; color: #000000; padding: 3px;">hzID</span>:&nbsp;
<span style="color: #000000; padding:3px;">5</span><br>]]></description>
          <Point>
            <extrude>1</extrude>
            <altitudeMode>relativeToGround</altitudeMode>
            <coordinates> 3.9,7.50298794492161,193</coordinates>
          </Point>
        </Placemark>
        <Placemark>
          <name>1.2</name>
          <styleUrl>#pnt6</styleUrl>
          <description><![CDATA[<span style="font-weight: bold; color: #000000; padding: 3px;">id</span>:&nbsp;
<span style="color: #000000; padding:3px;">ISRIC:NG0017</span><br>
<span style="font-weight: bold; color: #000000; padding: 3px;">top</span>:&nbsp;
<span style="color: #000000; padding:3px;">127</span><br>
<span style="font-weight: bold; color: #000000; padding: 3px;">bottom</span>:&nbsp;
<span style="color: #000000; padding:3px;">181</span><br>
<span style="font-weight: bold; color: #000000; padding: 3px;">ORCDRC</span>:&nbsp;
<span style="color: #000000; padding:3px;">1.2</span><br>
<span style="font-weight: bold; color: #000000; padding: 3px;">hue</span>:&nbsp;
<span style="color: #000000; padding:3px;">10YR</span><br>
<span style="font-weight: bold; color: #000000; padding: 3px;">value</span>:&nbsp;
<span style="color: #000000; padding:3px;">7</span><br>
<span style="font-weight: bold; color: #000000; padding: 3px;">chroma</span>:&nbsp;
<span style="color: #000000; padding:3px;">3</span><br>
<span style="font-weight: bold; color: #000000; padding: 3px;">soil_color</span>:&nbsp;
<span style="color: #000000; padding:3px;">#C4AC8CFF</span><br>
<span style="font-weight: bold; color: #000000; padding: 3px;">hzID</span>:&nbsp;
<span style="color: #000000; padding:3px;">6</span><br>]]></description>
          <Point>
            <extrude>1</extrude>
            <altitudeMode>relativeToGround</altitudeMode>
            <coordinates> 3.9,7.50298794492161,146</coordinates>
          </Point>
        </Placemark>
      </Folder>
      <Camera>
        <longitude>3.900000</longitude>
        <latitude>7.490000</latitude>
        <altitude>300.000000</altitude>
        <heading>0.0</heading>
        <tilt>90.0</tilt>
        <roll>0.0</roll>
      </Camera>
    </Folder>
  </Document>
</kml>